COMMENT,ORIGINATOR,NORAD_CAT_ID,OBJECT_NAME,OBJECT_TYPE,CLASSIFICATION_TYPE,INTLDES,EPOCH,EPOCH_MICROSECONDS,MEAN_MOTION,ECCENTRICITY,INCLINATION,RA_OF_ASC_NODE,ARG_OF_PERICENTER,MEAN_ANOMALY,EPHEMERIS_TYPE,ELEMENT_SET_NO,REV_AT_EPOCH,BSTAR,MEAN_MOTION_DOT,MEAN_MOTION_DDOT,FILE,TLE_LINE0,TLE_LINE1,TLE_LINE2,OBJECT_ID,OBJECT_NUMBER,SEMIMAJOR_AXIS,PERIOD,APOGEE,PERIGEE,DECAYED,date
GENERATED VIA SPACETRACK.ORG API,18 SPCS,48897,SPACEBEE-109,PAYLOAD,U,21059U,2023/3/7 14:53,23744,15.24964777,0.0008477,97.5823,201.9743,265.256,94.771,0,999,9389,0.0021406,0.00053672,0,3854072,0 SPACEBEE-109,1 48897U 21059U   23066.62049796  .00053672  00000-0  21406-2 0  9991,2 48897  97.5823 201.9743 0008477 265.2560  94.7710 15.24964777 93899,2021-059U,48897,6869.028,94.428,496.716,485.07,0,
GENERATED VIA SPACETRACK.ORG API,18 SPCS,48897,SPACEBEE-109,PAYLOAD,U,21059U,2023/3/8 8:12,223904,15.25033374,0.0008576,97.5823,202.7049,262.5784,97.4479,0,999,9400,0.0017669,0.00044325,0,3854499,0 SPACEBEE-109,1 48897U 21059U   23067.34227111  .00044325  00000-0  17669-2 0  9991,2 48897  97.5823 202.7049 0008576 262.5784  97.4479 15.25033374 94002,2021-059U,48897,6868.822,94.424,496.578,484.797,0,
GENERATED VIA SPACETRACK.ORG API,18 SPCS,48897,SPACEBEE-109,PAYLOAD,U,21059U,2023/3/8 8:12,223904,15.25033374,0.0008576,97.5823,202.7049,262.5784,97.4479,0,999,9400,0.0017669,0.00044325,0,3855077,0 SPACEBEE-109,1 48897U 21059U   23067.34227111  .00044325  00000-0  17669-2 0  9991,2 48897  97.5823 202.7049 0008576 262.5784  97.4479 15.25033374 94002,2021-059U,48897,6868.822,94.424,496.578,484.797,0,
GENERATED VIA SPACETRACK.ORG API,18 SPCS,48897,SPACEBEE-109,PAYLOAD,U,21059U,2023/3/9 3:06,338208,15.25128273,0.0008561,97.5824,203.5024,260.6533,99.3737,0,999,9412,0.0029235,0.00073888,0,3855216,0 SPACEBEE-109,1 48897U 21059U   23068.12962197  .00073888  00000-0  29235-2 0  9996,2 48897  97.5824 203.5024 0008561 260.6533  99.3737 15.25128273 94124,2021-059U,48897,6868.537,94.418,496.282,484.522,0,
GENERATED VIA SPACETRACK.ORG API,18 SPCS,48897,SPACEBEE-109,PAYLOAD,U,21059U,2023/3/9 22:00,492800,15.25206466,0.0008558,97.5828,204.3,258.066,101.9618,0,999,9424,0.0022528,0.00056924,0,3855951,0 SPACEBEE-109,1 48897U 21059U   23068.91692700  .00056924  00000-0  22528-2 0  9993,2 48897  97.5828 204.3000 0008558 258.0660 101.9618 15.25206466 94241,2021-059U,48897,6868.303,94.413,496.045,484.29,0,
GENERATED VIA SPACETRACK.ORG API,18 SPCS,48897,SPACEBEE-109,PAYLOAD,U,21059U,2023/3/9 22:00,492800,15.25206466,0.0008558,97.5828,204.3,258.066,101.9618,0,999,9424,0.0022528,0.00056924,0,3856092,0 SPACEBEE-109,1 48897U 21059U   23068.91692700  .00056924  00000-0  22528-2 0  9993,2 48897  97.5828 204.3000 0008558 258.0660 101.9618 15.25206466 94241,2021-059U,48897,6868.303,94.413,496.045,484.29,0,
GENERATED VIA SPACETRACK.ORG API,18 SPCS,48897,SPACEBEE-109,PAYLOAD,U,21059U,2023/3/10 21:37,780512,15.25315113,0.0008548,97.5829,205.2974,255.8459,104.1829,0,999,9439,0.0020224,0.00051222,0,3856975,0 SPACEBEE-109,1 48897U 21059U   23069.90099283  .00051222  00000-0  20224-2 0  9997,2 48897  97.5829 205.2974 0008548 255.8459 104.1829 15.25315113 94397,2021-059U,48897,6867.976,94.407,495.712,483.971,0,
GENERATED VIA SPACETRACK.ORG API,18 SPCS,48897,SPACEBEE-109,PAYLOAD,U,21059U,2023/3/11 8:38,317152,15.25366431,0.0008601,97.5832,205.7622,253.6725,106.3567,0,999,9446,0.0020581,0.00052215,0,3857432,0 SPACEBEE-109,1 48897U 21059U   23070.36020043  .00052215  00000-0  20581-2 0  9996,2 48897  97.5832 205.7622 0008601 253.6725 106.3567 15.25366431 94468,2021-059U,48897,6867.822,94.404,495.594,483.78,0,
GENERATED VIA SPACETRACK.ORG API,18 SPCS,48897,SPACEBEE-109,PAYLOAD,U,21059U,2023/3/11 8:38,317152,15.25366431,0.0008601,97.5832,205.7622,253.6725,106.3567,0,999,9446,0.0020581,0.00052215,0,3857581,0 SPACEBEE-109,1 48897U 21059U   23070.36020043  .00052215  00000-0  20581-2 0  9996,2 48897  97.5832 205.7622 0008601 253.6725 106.3567 15.25366431 94468,2021-059U,48897,6867.822,94.404,495.594,483.78,0,
GENERATED VIA SPACETRACK.ORG API,18 SPCS,48897,SPACEBEE-109,PAYLOAD,U,21059U,2023/3/11 14:56,530272,15.25385515,0.0008594,97.5832,206.0285,253.1256,106.9039,0,999,9450,0.0017778,0.00045076,0,3857847,0 SPACEBEE-109,1 48897U 21059U   23070.62259873  .00045076  00000-0  17778-2 0  9991,2 48897  97.5832 206.0285 0008594 253.1256 106.9039 15.25385515 94501,2021-059U,48897,6867.765,94.402,495.532,483.728,0,
GENERATED VIA SPACETRACK.ORG API,18 SPCS,48897,SPACEBEE-109,PAYLOAD,U,21059U,2023/3/11 21:14,402112,15.25410087,0.0008648,97.5832,206.2945,252.3928,107.6365,0,999,9454,0.0016467,0.00041759,0,3857996,0 SPACEBEE-109,1 48897U 21059U   23070.88499308  .00041759  00000-0  16467-2 0  9996,2 48897  97.5832 206.2945 0008648 252.3928 107.6365 15.25410087 94540,2021-059U,48897,6867.691,94.401,495.495,483.617,0,
GENERATED VIA SPACETRACK.ORG API,18 SPCS,48897,SPACEBEE-109,PAYLOAD,U,21059U,2023/3/12 8:15,583488,15.25455483,0.0008679,97.583,206.7593,251.2543,108.7753,0,999,9461,0.0019408,0.00049348,0,3858534,0 SPACEBEE-109,1 48897U 21059U   23071.34417342  .00049348  00000-0  19408-2 0  9996,2 48897  97.5830 206.7593 0008679 251.2543 108.7753 15.25455483 94617,2021-059U,48897,6867.555,94.398,495.38,483.46,0,
GENERATED VIA SPACETRACK.ORG API,18 SPCS,48897,SPACEBEE-109,PAYLOAD,U,21059U,2023/3/12 14:33,437536,15.254802,0.0008644,97.5831,207.0255,250.7611,109.2691,0,999,9465,0.0019667,0.00050049,0,3858624,0 SPACEBEE-109,1 48897U 21059U   23071.60655599  .00050049  00000-0  19667-2 0  9990,2 48897  97.5831 207.0255 0008644 250.7611 109.2691 15.25480200 94655,2021-059U,48897,6867.481,94.397,495.282,483.41,0,
GENERATED VIA SPACETRACK.ORG API,18 SPCS,48897,SPACEBEE-109,PAYLOAD,U,21059U,2023/3/12 14:33,437536,15.254802,0.0008644,97.5831,207.0255,250.7611,109.2691,0,999,9465,0.0019667,0.00050049,0,3858743,0 SPACEBEE-109,1 48897U 21059U   23071.60655599  .00050049  00000-0  19667-2 0  9990,2 48897  97.5831 207.0255 0008644 250.7611 109.2691 15.25480200 94655,2021-059U,48897,6867.481,94.397,495.282,483.41,0,
GENERATED VIA SPACETRACK.ORG API,18 SPCS,48897,SPACEBEE-109,PAYLOAD,U,21059U,2023/3/13 7:52,682240,15.2554082,0.0008694,97.5831,207.757,247.7066,112.325,0,999,9476,0.0015846,0.00040332,0,3859178,0 SPACEBEE-109,1 48897U 21059U   23072.32808660  .00040332  00000-0  15846-2 0  9998,2 48897  97.5831 207.7570 0008694 247.7066 112.3250 15.25540820 94760,2021-059U,48897,6867.299,94.393,495.134,483.194,0,
GENERATED VIA SPACETRACK.ORG API,18 SPCS,48897,SPACEBEE-109,PAYLOAD,U,21059U,2023/3/13 7:52,682240,15.2554082,0.0008694,97.5831,207.757,247.7066,112.325,0,999,9476,0.0015846,0.00040332,0,3859425,0 SPACEBEE-109,1 48897U 21059U   23072.32808660  .00040332  00000-0  15846-2 0  9998,2 48897  97.5831 207.7570 0008694 247.7066 112.3250 15.25540820 94760,2021-059U,48897,6867.299,94.393,495.134,483.194,0,
GENERATED VIA SPACETRACK.ORG API,18 SPCS,48897,SPACEBEE-109,PAYLOAD,U,21059U,2023/3/13 22:02,535872,15.25589881,0.0008673,97.583,208.3553,245.7631,114.27,0,999,9485,0.0015473,0.00039434,0,3859631,0 SPACEBEE-109,1 48897U 21059U   23072.91840898  .00039434  00000-0  15473-2 0  9999,2 48897  97.5830 208.3553 0008673 245.7631 114.2700 15.25589881 94851,2021-059U,48897,6867.152,94.39,494.973,483.061,0,
GENERATED VIA SPACETRACK.ORG API,18 SPCS,48897,SPACEBEE-109,PAYLOAD,U,21059U,2023/3/14 9:03,79296,15.25630438,0.0008619,97.5832,208.8211,244.1502,115.8847,0,999,9492,0.0016742,0.00042745,0,3860160,0 SPACEBEE-109,1 48897U 21059U   23073.37753564  .00042745  00000-0  16742-2 0  9992,2 48897  97.5832 208.8211 0008619 244.1502 115.8847 15.25630438 94921,2021-059U,48897,6867.03,94.387,494.814,482.976,0,
GENERATED VIA SPACETRACK.ORG API,18 SPCS,48897,SPACEBEE-109,PAYLOAD,U,21059U,2023/3/14 9:03,79296,15.25630438,0.0008619,97.5832,208.8211,244.1502,115.8847,0,999,9492,0.0016742,0.00042745,0,3860373,0 SPACEBEE-109,1 48897U 21059U   23073.37753564  .00042745  00000-0  16742-2 0  9992,2 48897  97.5832 208.8211 0008619 244.1502 115.8847 15.25630438 94921,2021-059U,48897,6867.03,94.387,494.814,482.976,0,
GENERATED VIA SPACETRACK.ORG API,18 SPCS,48897,SPACEBEE-109,PAYLOAD,U,21059U,2023/3/14 21:39,214592,15.25679955,0.0008603,97.5831,209.3532,241.9276,118.1092,0,999,9500,0.0018004,0.00046061,0,3860643,0 SPACEBEE-109,1 48897U 21059U   23073.90223628  .00046061  00000-0  18004-2 0  9992,2 48897  97.5831 209.3532 0008603 241.9276 118.1092 15.25679955 95003,2021-059U,48897,6866.881,94.384,494.654,482.839,0,
GENERATED VIA SPACETRACK.ORG API,18 SPCS,48897,SPACEBEE-109,PAYLOAD,U,21059U,2023/3/15 8:40,315488,15.25726531,0.0008591,97.5829,209.8187,240.3296,119.7087,0,999,9507,0.0019219,0.00049264,0,3861120,0 SPACEBEE-109,1 48897U 21059U   23074.36133467  .00049264  00000-0  19219-2 0  9991,2 48897  97.5829 209.8187 0008591 240.3296 119.7087 15.25726531 95073,2021-059U,48897,6866.742,94.381,494.506,482.707,0,
GENERATED VIA SPACETRACK.ORG API,18 SPCS,48897,SPACEBEE-109,PAYLOAD,U,21059U,2023/3/15 8:40,315488,15.25726531,0.0008591,97.5829,209.8187,240.3296,119.7087,0,999,9507,0.0019219,0.00049264,0,3861350,0 SPACEBEE-109,1 48897U 21059U   23074.36133467  .00049264  00000-0  19219-2 0  9991,2 48897  97.5829 209.8187 0008591 240.3296 119.7087 15.25726531 95073,2021-059U,48897,6866.742,94.381,494.506,482.707,0,
GENERATED VIA SPACETRACK.ORG API,18 SPCS,48897,SPACEBEE-109,PAYLOAD,U,21059U,2023/3/15 21:15,467392,15.25778098,0.0008623,97.5829,210.3508,238.6519,121.3875,0,999,9515,0.0017506,0.0004491,0,3861599,0 SPACEBEE-109,1 48897U 21059U   23074.88600078  .00044910  00000-0  17506-2 0  9995,2 48897  97.5829 210.3508 0008623 238.6519 121.3875 15.25778098 95159,2021-059U,48897,6866.587,94.378,494.373,482.531,0,
